{"timestamp": "2025-03-02T19:01:21.608120", "data": [{"OBJECT_NAME": "GPS BIIR-2  (PRN 13)", "OBJECT_ID": "1997-035A", "EPOCH": "2025-03-01T13:06:58.213440", "MEAN_MOTION": 2.00562479, "ECCENTRICITY": 0.0087123, "INCLINATION": 55.761, "RA_OF_ASC_NODE": 117.0643, "ARG_OF_PERICENTER": 54.0461, "MEAN_ANOMALY": 306.8451, "EPHEMERIS_TYPE": 0, "CLASSIFICATION_TYPE": "U", "NORAD_CAT_ID": 24876, "ELEMENT_SET_NO": 999, "REV_AT_EPOCH": 20247, "BSTAR": 0, "MEAN_MOTION_DOT": 3.6e-07, "MEAN_MOTION_DDOT": 0, "line1": "1 24876U 97035A   25060.54650710  .00000036  00000+0  00000+0 0  9999", "line2": "2 24876  55.7610 117.0643 0087123  54.0461 306.8451  2.00562479202473"}, {"OBJECT_NAME": "GPS BIIR-4  (PRN 20)", "OBJECT_ID": "2000-025A", "EPOCH": "2025-03-01T15:45:02.852928", "MEAN_MOTION": 2.00558806, "ECCENTRICITY": 0.0038535, "INCLINATION": 54.8642, "RA_OF_ASC_NODE": 38.4121, "ARG_OF_PERICENTER": 230.7525, "MEAN_ANOMALY": 299.1123, "EPHEMERIS_TYPE": 0, "CLASSIFICATION_TYPE": "U", "NORAD_CAT_ID": 26360, "ELEMENT_SET_NO": 999, "REV_AT_EPOCH": 18178, "BSTAR": 0, "MEAN_MOTION_DOT": -4.7e-07, "MEAN_MOTION_DDOT": 0, "line1": "1 26360U 00025A   25060.65628302 -.00000047  00000+0  00000+0 0  9999", "line2": "2 26360  54.8642  38.4121 0038535 230.7525 299.1123  2.00558806181781"}, {"OBJECT_NAME": "GPS BIIR-5  (PRN 22)", "OBJECT_ID": "2000-040A", "EPOCH": "2025-03-01T15:43:22.562400", "MEAN_MOTION": 2.00564009, "ECCENTRICITY": 0.0134739, "INCLINATION": 54.9743, "RA_OF_ASC_NODE": 233.9384, "ARG_OF_PERICENTER": 298.4856, "MEAN_ANOMALY": 68.134, "EPHEMERIS_TYPE": 0, "CLASSIFICATION_TYPE": "U", "NORAD_CAT_ID": 26407, "ELEMENT_SET_NO": 999, "REV_AT_EPOCH": 18046, "BSTAR": 0, "MEAN_MOTION_DOT": 4.8e-07, "MEAN_MOTION_DDOT": 0, "line1": "1 26407U 00040A   25060.65512225  .00000048  00000+0  00000+0 0  9994", "line2": "2 26407  54.9743 233.9384 0134739 298.4856  68.1340  2.00564009180461"}, {"OBJECT_NAME": "GPS BIIR-8  (PRN 16)", "OBJECT_ID": "2003-005A", "EPOCH": "2025-03-01T05:44:18.608928", "MEAN_MOTION": 2.00560147, "ECCENTRICITY": 0.0143535, "INCLINATION": 55.0102, "RA_OF_ASC_NODE": 233.7653, "ARG_OF_PERICENTER": 49.7251, "MEAN_ANOMALY": 157.3243, "EPHEMERIS_TYPE": 0, "CLASSIFICATION_TYPE": "U", "NORAD_CAT_ID": 27663, "ELEMENT_SET_NO": 999, "REV_AT_EPOCH": 16182, "BSTAR": 0, "MEAN_MOTION_DOT": 4.8e-07, "MEAN_MOTION_DDOT": 0, "line1": "1 27663U 03005A   25060.23910427  .00000048  00000+0  00000+0 0  9993", "line2": "2 27663  55.0102 233.7653 0143535  49.7251 157.3243  2.00560147161825"}, {"OBJECT_NAME": "GPS BIIR-11 (PRN 19)", "OBJECT_ID": "2004-009A", "EPOCH": "2025-03-02T10:19:12.128736", "MEAN_MOTION": 2.00570356, "ECCENTRICITY": 0.0101147, "INCLINATION": 55.2291, "RA_OF_ASC_NODE": 294.6977, "ARG_OF_PERICENTER": 156.9712, "MEAN_ANOMALY": 344.6127, "EPHEMERIS_TYPE": 0, "CLASSIFICATION_TYPE": "U", "NORAD_CAT_ID": 28190, "ELEMENT_SET_NO": 999, "REV_AT_EPOCH": 15351, "BSTAR": 0, "MEAN_MOTION_DOT": -1.3e-07, "MEAN_MOTION_DDOT": 0, "line1": "1 28190U 04009A   25061.43000149 -.00000013  00000+0  00000+0 0  9991", "line2": "2 28190  55.2291 294.6977 0101147 156.9712 344.6127  2.00570356153515"}, {"OBJECT_NAME": "GPS BIIR-13 (PRN 02)", "OBJECT_ID": "2004-045A", "EPOCH": "2025-02-26T06:41:38.254272", "MEAN_MOTION": 2.00657055, "ECCENTRICITY": 0.0164349, "INCLINATION": 55.3623, "RA_OF_ASC_NODE": 344.0308, "ARG_OF_PERICENTER": 300.5074, "MEAN_ANOMALY": 134.4672, "EPHEMERIS_TYPE": 0, "CLASSIFICATION_TYPE": "U", "NORAD_CAT_ID": 28474, "ELEMENT_SET_NO": 999, "REV_AT_EPOCH": 14888, "BSTAR": 0, "MEAN_MOTION_DOT": -7.4e-07, "MEAN_MOTION_DDOT": 0, "line1": "1 28474U 04045A   25057.27891498 -.00000074  00000+0  00000+0 0  9995", "line2": "2 28474  55.3623 344.0308 0164349 300.5074 134.4672  2.00657055148885"}, {"OBJECT_NAME": "CRE (WAAS/PRN 138)", "OBJECT_ID": "2005-036A", "EPOCH": "2025-03-01T15:36:10.658304", "MEAN_MOTION": 1.0027106, "ECCENTRICITY": 0.0002534, "INCLINATION": 3.0966, "RA_OF_ASC_NODE": 82.4882, "ARG_OF_PERICENTER": 289.8646, "MEAN_ANOMALY": 274.0623, "EPHEMERIS_TYPE": 0, "CLASSIFICATION_TYPE": "U", "NORAD_CAT_ID": 28868, "ELEMENT_SET_NO": 999, "REV_AT_EPOCH": 4171, "BSTAR": 0, "MEAN_MOTION_DOT": -7.6e-07, "MEAN_MOTION_DDOT": 0, "line1": "1 28868U 05036A   25060.65012336 -.00000076  00000+0  00000+0 0  9997", "line2": "2 28868   3.0966  82.4882 0002534 289.8646 274.0623  1.00271060 41711"}, {"OBJECT_NAME": "GPS BIIRM-1 (PRN 17)", "OBJECT_ID": "2005-038A", "EPOCH": "2025-03-01T11:02:27.425760", "MEAN_MOTION": 2.00567808, "ECCENTRICITY": 0.0133887, "INCLINATION": 55.2747, "RA_OF_ASC_NODE": 292.2063, "ARG_OF_PERICENTER": 289.3674, "MEAN_ANOMALY": 258.2535, "EPHEMERIS_TYPE": 0, "CLASSIFICATION_TYPE": "U", "NORAD_CAT_ID": 28874, "ELEMENT_SET_NO": 999, "REV_AT_EPOCH": 14235, "BSTAR": 0, "MEAN_MOTION_DOT": -3e-08, "MEAN_MOTION_DDOT": 0, "line1": "1 28874U 05038A   25060.46003965 -.00000003  00000+0  00000+0 0  9993", "line2": "2 28874  55.2747 292.2063 0133887 289.3674 258.2535  2.00567808142355"}, {"OBJECT_NAME": "IOR-W (EGNOS/PRN 126)", "OBJECT_ID": "2005-044A", "EPOCH": "2025-03-01T20:33:49.597056", "MEAN_MOTION": 1.00271808, "ECCENTRICITY": 0.0002124, "INCLINATION": 4.4882, "RA_OF_ASC_NODE": 43.2872, "ARG_OF_PERICENTER": 309.617, "MEAN_ANOMALY": 258.9254, "EPHEMERIS_TYPE": 0, "CLASSIFICATION_TYPE": "U", "NORAD_CAT_ID": 28899, "ELEMENT_SET_NO": 999, "REV_AT_EPOCH": 7078, "BSTAR": 0, "MEAN_MOTION_DOT": -2.61e-06, "MEAN_MOTION_DDOT": 0, "line1": "1 28899U 05044A   25060.85682404 -.00000261  00000+0  00000+0 0  9997", "line2": "2 28899   4.4882  43.2872 0002124 309.6170 258.9254  1.00271808 70789"}, {"OBJECT_NAME": "GPS BIIRM-2 (PRN 31)", "OBJECT_ID": "2006-042A", "EPOCH": "2025-03-01T09:08:43.348992", "MEAN_MOTION": 2.00568461, "ECCENTRICITY": 0.0104665, "INCLINATION": 54.6803, "RA_OF_ASC_NODE": 170.0957, "ARG_OF_PERICENTER": 45.26, "MEAN_ANOMALY": 345.448, "EPHEMERIS_TYPE": 0, "CLASSIFICATION_TYPE": "U", "NORAD_CAT_ID": 29486, "ELEMENT_SET_NO": 999, "REV_AT_EPOCH": 13491, "BSTAR": 0, "MEAN_MOTION_DOT": 2.8e-07, "MEAN_MOTION_DDOT": 0, "line1": "1 29486U 06042A   25060.38105728  .00000028  00000+0  00000+0 0  9996", "line2": "2 29486  54.6803 170.0957 0104665  45.2600 345.4480  2.00568461134913"}, {"OBJECT_NAME": "GPS BIIRM-3 (PRN 12)", "OBJECT_ID": "2006-052A", "EPOCH": "2025-02-28T18:24:36.457632", "MEAN_MOTION": 2.00556213, "ECCENTRICITY": 0.0087893, "INCLINATION": 55.0491, "RA_OF_ASC_NODE": 232.7811, "ARG_OF_PERICENTER": 84.851, "MEAN_ANOMALY": 276.1264, "EPHEMERIS_TYPE": 0, "CLASSIFICATION_TYPE": "U", "NORAD_CAT_ID": 29601, "ELEMENT_SET_NO": 999, "REV_AT_EPOCH": 13391, "BSTAR": 0, "MEAN_MOTION_DOT": 4.8e-07, "MEAN_MOTION_DDOT": 0, "line1": "1 29601U 06052A   25059.76708863  .00000048  00000+0  00000+0 0  9997", "line2": "2 29601  55.0491 232.7811 0087893  84.8510 276.1264  2.00556213133918"}, {"OBJECT_NAME": "GPS BIIRM-4 (PRN 15)", "OBJECT_ID": "2007-047A", "EPOCH": "2025-02-28T01:53:35.200896", "MEAN_MOTION": 2.00552235, "ECCENTRICITY": 0.0158907, "INCLINATION": 53.756, "RA_OF_ASC_NODE": 99.6492, "ARG_OF_PERICENTER": 79.8615, "MEAN_ANOMALY": 282.0147, "EPHEMERIS_TYPE": 0, "CLASSIFICATION_TYPE": "U", "NORAD_CAT_ID": 32260, "ELEMENT_SET_NO": 999, "REV_AT_EPOCH": 12730, "BSTAR": 0, "MEAN_MOTION_DOT": 3.6e-07, "MEAN_MOTION_DDOT": 0, "line1": "1 32260U 07047A   25059.07887964  .00000036  00000+0  00000+0 0  9998", "line2": "2 32260  53.7560  99.6492 0158907  79.8615 282.0147  2.00552235127307"}, {"OBJECT_NAME": "COSMOS 2433 (720)", "OBJECT_ID": "2007-052A", "EPOCH": "2025-03-02T07:28:09.174720", "MEAN_MOTION": 2.13103841, "ECCENTRICITY": 0.0002669, "INCLINATION": 65.826, "RA_OF_ASC_NODE": 331.7715, "ARG_OF_PERICENTER": 281.407, "MEAN_ANOMALY": 78.6104, "EPHEMERIS_TYPE": 0, "CLASSIFICATION_TYPE": "U", "NORAD_CAT_ID": 32275, "ELEMENT_SET_NO": 999, "REV_AT_EPOCH": 13504, "BSTAR": 0, "MEAN_MOTION_DOT": -5.1e-07, "MEAN_MOTION_DDOT": 0, "line1": "1 32275U 07052A   25061.31121730 -.00000051  00000+0  00000+0 0  9990", "line2": "2 32275  65.8260 331.7715 0002669 281.4070  78.6104  2.13103841135042"}, {"OBJECT_NAME": "COSMOS 2432 (719)", "OBJECT_ID": "2007-052B", "EPOCH": "2025-03-02T12:52:25.220928", "MEAN_MOTION": 2.13103088, "ECCENTRICITY": 0.0011221, "INCLINATION": 65.8412, "RA_OF_ASC_NODE": 331.8827, "ARG_OF_PERICENTER": 329.7065, "MEAN_ANOMALY": 148.4975, "EPHEMERIS_TYPE": 0, "CLASSIFICATION_TYPE": "U", "NORAD_CAT_ID": 32276, "ELEMENT_SET_NO": 999, "REV_AT_EPOCH": 13504, "BSTAR": 0, "MEAN_MOTION_DOT": -5.2e-07, "MEAN_MOTION_DDOT": 0, "line1": "1 32276U 07052B   25061.53640302 -.00000052  00000+0  00000+0 0  9997", "line2": "2 32276  65.8412 331.8827 0011221 329.7065 148.4975  2.13103088135046"}, {"OBJECT_NAME": "GPS BIIRM-5 (PRN 29)", "OBJECT_ID": "2007-062A", "EPOCH": "2025-02-28T19:36:24.703776", "MEAN_MOTION": 2.00561268, "ECCENTRICITY": 0.0029133, "INCLINATION": 55.4202, "RA_OF_ASC_NODE": 293.1341, "ARG_OF_PERICENTER": 153.5008, "MEAN_ANOMALY": 148.4711, "EPHEMERIS_TYPE": 0, "CLASSIFICATION_TYPE": "U", "NORAD_CAT_ID": 32384, "ELEMENT_SET_NO": 999, "REV_AT_EPOCH": 12601, "BSTAR": 0, "MEAN_MOTION_DOT": 0, "MEAN_MOTION_DDOT": 0, "line1": "1 32384U 07062A   25059.81695259  .00000000  00000+0  00000+0 0  9999", "line2": "2 32384  55.4202 293.1341 0029133 153.5008 148.4711  2.00561268126019"}, {"OBJECT_NAME": "COSMOS 2434 (721)", "OBJECT_ID": "2007-065A", "EPOCH": "2025-03-01T17:59:53.737728", "MEAN_MOTION": 2.13101257, "ECCENTRICITY": 0.0004162, "INCLINATION": 64.3182, "RA_OF_ASC_NODE": 207.8573, "ARG_OF_PERICENTER": 74.0512, "MEAN_ANOMALY": 107.1005, "EPHEMERIS_TYPE": 0, "CLASSIFICATION_TYPE": "U", "NORAD_CAT_ID": 32393, "ELEMENT_SET_NO": 999, "REV_AT_EPOCH": 13370, "BSTAR": 0, "MEAN_MOTION_DOT": 5.1e-07, "MEAN_MOTION_DDOT": 0, "line1": "1 32393U 07065A   25060.74992752  .00000051  00000+0  00000+0 0  9990", "line2": "2 32393  64.3182 207.8573 0004162  74.0512 107.1005  2.13101257133700"}]}